ONEWEB-0597             
1 54663U 22166X   25125.05577149  .00000030  00000+0  41472-4 0  9998
2 54663  87.9258 325.3825 0001939  82.2895 277.8459 13.21822582118094
ONEWEB-0600             
1 54664U 22166Y   25125.56832433  .00000090  00000+0  18550-3 0  9991
2 54664  87.9238 325.2912 0001833  82.7960 277.3383 13.21825532118134
ONEWEB-0601             
1 54665U 22166Z   25125.48473925  .00000987  00000+0  23578-2 0  9990
2 54665  87.9258 325.3074 0002206  83.1760 276.9624 13.21823651118307
ONEWEB-0602             
1 54666U 22166AA  25125.82853339  .00000050  00000+0  90767-4 0  9997
2 54666  87.9258 325.2397 0001877  79.6261 280.5084 13.21826329118209
ONEWEB-0603             
1 54667U 22166AB  25125.83324661 -.00000970  00000+0 -23794-2 0  9997
2 54667  87.9235 325.1945 0002138  81.1953 278.9423 13.21832164118123
ONEWEB-0604             
1 54668U 22166AC  25125.82064006  .00000047  00000+0  82467-4 0  9998
2 54668  87.9253 325.2047 0001859  79.8137 280.3206 13.21827241118097
ONEWEB-0605             
1 54669U 22166AD  25125.51154983  .00000055  00000+0  10068-3 0  9995
2 54669  87.9252 325.2972 0002554  85.4006 274.7419 13.21826979118129
ONEWEB-0606             
1 54670U 22166AE  25125.45793048 -.00000216  00000+0 -55333-3 0  9996
2 54670  87.9256 325.3161 0001563  93.6211 266.5101 13.21823572118161
